NORAD_CAT_ID,OBJECT_NAME,OBJECT_TYPE,EPOCH,MEAN_MOTION,ECCENTRICITY,INCLINATION,RA_OF_ASC_NODE,ARG_OF_PERICENTER,MEAN_ANOMALY,BSTAR,MEAN_MOTION_DOT,MEAN_MOTION_DDOT,TLE_LINE0,TLE_LINE1,TLE_LINE2,SEMIMAJOR_AXIS,PERIOD,APOGEE,PERIGEE,DECAYED
52344.0,STARLINK-3851,PAYLOAD,2022-08-06 00:00:02,15.08861259,0.0001673,53.2162,327.5264,45.2401,193.4359,-0.0041493,-0.0006576,0.0,0 STARLINK-3851,1 52344U 22045P   22218.00002315 -.00065760  00000-0 -41493-2 0  9996,2 52344  53.2162 327.5264 0001673  45.2401 193.4359 15.08861259 17750,6917.815,95.436,540.8380000000002,538.523,0.0
52344.0,STARLINK-3851,PAYLOAD,2022-08-06 13:15:18,15.08829578,0.0001661,53.2182,325.0462,44.0727,316.0397,4.7727e-05,4.71e-06,0.0,0 STARLINK-3851,1 52344U 22045P   22218.55229319  .00000471  00000-0  47727-4 0  9995,2 52344  53.2182 325.0462 0001661  44.0727 316.0397 15.08829578 17843,6917.9119999999975,95.438,540.9259999999998,538.628,0.0
52344.0,STARLINK-3851,PAYLOAD,2022-08-06 22:00:00,15.08848628,0.0001799,53.2159,323.4117,44.7619,135.708,-0.0017192999999999,-0.00027553,0.0,0 STARLINK-3851,1 52344U 22045P   22218.91667824 -.00027553  00000-0 -17193-2 0  9996,2 52344  53.2159 323.4117 0001799  44.7619 135.7080 15.08848628  1301,6917.854,95.437,540.964,538.474,0.0
52344.0,STARLINK-3851,PAYLOAD,2022-08-07 13:06:04,15.08841675,0.0001801,53.2181,320.5859,48.6636,311.4511,1.0948e-05,-1.14e-06,0.0,0 STARLINK-3851,1 52344U 22045P   22219.54588914 -.00000114  00000-0  10948-4 0  9994,2 52344  53.2181 320.5859 0001801  48.6636 311.4511 15.08841675 17992,6917.875,95.437,540.986,538.494,0.0
52344.0,STARLINK-3851,PAYLOAD,2022-08-07 22:00:00,15.08876416,0.0001809,53.2163,318.9222,42.8352,172.4292,-0.0044788999999999,-0.0007093999999999,0.0,0 STARLINK-3851,1 52344U 22045P   22219.91667824 -.00070940  00000-0 -44789-2 0  9996,2 52344  53.2163 318.9222 0001809  42.8352 172.4292 15.08876416  1306,6917.769,95.435,540.886,538.383,0.0
52344.0,STARLINK-3851,PAYLOAD,2022-08-08 14:00:01,15.08848445,0.0001899,53.2167,315.93,41.9309,196.6178,0.0006855,0.00010641,0.0,0 STARLINK-3851,1 52344U 22045P   22220.58335648  .00010641  00000-0  68550-3 0  9990,2 52344  53.2167 315.9300 0001899  41.9309 196.6178 15.08848445 18147,6917.855,95.437,541.033,538.406,0.0
52344.0,STARLINK-3851,PAYLOAD,2022-08-08 22:00:00,15.08891518,0.0001808,53.2169,314.4328,40.4467,209.6545,-0.0051202,-0.00080976,0.0,0 STARLINK-3851,1 52344U 22045P   22220.91667824 -.00080976  00000-0 -51202-2 0  9996,2 52344  53.2169 314.4328 0001808  40.4467 209.6545 15.08891518  1304,6917.723000000001,95.434,540.839,538.337,0.0
52344.0,STARLINK-3851,PAYLOAD,2022-08-09 14:00:01,15.08836259,0.0001924,53.2172,311.4409,41.2227,232.0813,-0.0025815,-0.00041135,0.0,0 STARLINK-3851,1 52344U 22045P   22221.58334491 -.00041135  00000-0 -25815-2 0  9996,2 52344  53.2172 311.4409 0001924  41.2227 232.0813 15.08836259 18292,6917.892,95.438,541.0880000000002,538.4259999999998,0.0
52344.0,STARLINK-3851,PAYLOAD,2022-08-09 22:00:00,15.0881794,0.0001844999999999,53.2172,309.9437,41.407,243.4682,-0.0030693,-0.00048777,0.0,0 STARLINK-3851,1 52344U 22045P   22221.91667824 -.00048777  00000-0 -30693-2 0  9991,2 52344  53.2172 309.9437 0001845  41.4070 243.4682 15.08817940  1305,6917.948,95.439,541.089,538.536,0.0
52344.0,STARLINK-3851,PAYLOAD,2022-08-10 14:00:01,15.0882299,0.0001896999999999,53.2173,306.9522,39.3496,268.6807,0.0012523,0.00019689,0.0,0 STARLINK-3851,1 52344U 22045P   22222.58334491  .00019689  00000-0  12523-2 0  9996,2 52344  53.2173 306.9522 0001897  39.3496 268.6807 15.08822990  1302,6917.932,95.439,541.11,538.485,0.0
52344.0,STARLINK-3851,PAYLOAD,2022-08-10 17:07:18,15.0881633,0.0001872,53.2171,306.3685,37.1856,257.7399,0.0027454,0.00043648,0.0,0 STARLINK-3851,1 52344U 22045P   22222.71341435  .00043648  00000-0  27454-2 0  9998,2 52344  53.2171 306.3685 0001872  37.1856 257.7399 15.08816330 18464,6917.953,95.439,541.113,538.523,0.0
52344.0,STARLINK-3851,PAYLOAD,2022-08-10 22:00:00,15.08861038,0.000174,53.2171,305.4549,38.8556,280.7515,-0.0033457,-0.00053173,0.0,0 STARLINK-3851,1 52344U 22045P   22222.91667824 -.00053173  00000-0 -33457-2 0  9999,2 52344  53.2171 305.4549 0001740  38.8556 280.7515 15.08861038  1308,6917.816,95.436,540.885,538.477,0.0
52344.0,STARLINK-3851,PAYLOAD,2022-08-11 06:00:02,15.08825677,0.0001599,53.2172,303.958,42.4067,288.8604,0.00016711,2.372e-05,0.0,0 STARLINK-3851,1 52344U 22045P   22223.25002315  .00002372  00000-0  16711-3 0  9993,2 52344  53.2172 303.9580 0001599  42.4067 288.8604 15.08825677 18548,6917.924,95.438,540.895,538.683,0.0
52344.0,STARLINK-3851,PAYLOAD,2022-08-11 14:00:01,15.08811057,0.0001813,53.2169,302.4636,36.7039,306.0818,0.001351,0.00021262,0.0,0 STARLINK-3851,1 52344U 22045P   22223.58334491  .00021262  00000-0  13510-2 0  9994,2 52344  53.2169 302.4636 0001813  36.7039 306.0818 15.08811057  1307,6917.969,95.439,541.0880000000002,538.58,0.0
52344.0,STARLINK-3851,PAYLOAD,2022-08-12 14:00:01,15.08831026,0.0001828,53.2161,297.9749,37.3065,340.2371,0.0019541,0.00030941,0.0,0 STARLINK-3851,1 52344U 22045P   22224.58334491  .00030941  00000-0  19541-2 0  9999,2 52344  53.2161 297.9749 0001828  37.3065 340.2371 15.08831026  1306,6917.908,95.438,541.0369999999998,538.508,0.0
52344.0,STARLINK-3851,PAYLOAD,2022-08-12 22:00:01,15.08869709,0.0001737,53.2156,296.4770000000001,39.9348,349.2658,-0.003917,-0.00062141,0.0,0 STARLINK-3851,1 52344U 22045P   22224.91668981 -.00062141  00000-0 -39170-2 0  9999,2 52344  53.2156 296.4770 0001737  39.9348 349.2658 15.08869709  1305,6917.79,95.436,540.856,538.453,0.0
52344.0,STARLINK-3851,PAYLOAD,2022-08-13 06:00:02,15.08835697,0.000173,53.2155,294.9806,45.492,355.2875,-7.7994e-05,-1.529e-05,0.0,0 STARLINK-3851,1 52344U 22045P   22225.25002315 -.00001529  00000-0 -77994-4 0  9991,2 52344  53.2155 294.9806 0001730  45.4920 355.2875 15.08835697 18853,6917.894,95.438,540.955,538.562,0.0
52344.0,STARLINK-3851,PAYLOAD,2022-08-13 14:00:01,15.08813221,0.000193,53.2153,293.4859,40.4088,11.898,0.0021018,0.00033296,0.0,0 STARLINK-3851,1 52344U 22045P   22225.58334491  .00033296  00000-0  21018-2 0  9998,2 52344  53.2153 293.4859 0001930  40.4088  11.8980 15.08813221  1308,6917.962,95.439,541.1619999999998,538.492,0.0
52344.0,STARLINK-3851,PAYLOAD,2022-08-13 22:00:00,15.08838797,0.0001814,53.215,291.9879,42.4929,21.3929,-0.00063318,-0.00010351,0.0,0 STARLINK-3851,1 52344U 22045P   22225.91667824 -.00010351  00000-0 -63318-3 0  9993,2 52344  53.2150 291.9879 0001814  42.4929  21.3929 15.08838797  1301,6917.884,95.438,541.004,538.494,0.0
52344.0,STARLINK-3851,PAYLOAD,2022-08-14 14:00:01,15.08827717,0.0001994,53.2148,288.9965,39.7399,47.3446,0.0023526999999999,0.00037342,0.0,0 STARLINK-3851,1 52344U 22045P   22226.58334491  .00037342  00000-0  23527-2 0  9992,2 52344  53.2148 288.9965 0001994  39.7399  47.3446 15.08827717  1301,6917.918000000002,95.438,541.1619999999998,538.404,0.0
52344.0,STARLINK-3851,PAYLOAD,2022-08-14 22:00:00,15.0885054,0.0001828,53.2147,287.4983,40.9041,57.7819,-0.0023971,-0.00038247,0.0,0 STARLINK-3851,1 52344U 22045P   22226.91667824 -.00038247  00000-0 -23971-2 0  9998,2 52344  53.2147 287.4983 0001828  40.9041  57.7819 15.08850540  1307,6917.848000000001,95.437,540.9780000000002,538.4490000000002,0.0
52344.0,STARLINK-3851,PAYLOAD,2022-08-15 06:00:00,15.08843636,0.0001844,53.2147,286.0018,42.7354,67.5363,-0.00078737,-0.00012799,0.0,0 STARLINK-3851,1 52344U 22045P   22227.25001157 -.00012799  00000-0 -78737-3 0  9992,2 52344  53.2147 286.0018 0001844  42.7354  67.5363 15.08843636 19159,6917.869000000002,95.437,541.01,538.4590000000002,0.0
52344.0,STARLINK-3851,PAYLOAD,2022-08-15 14:00:01,15.08811867,0.0002034,53.2148,284.5068,37.5168,84.3534,0.0030011,0.00047762,0.0,0 STARLINK-3851,1 52344U 22045P   22227.58334491  .00047762  00000-0  30011-2 0  9996,2 52344  53.2148 284.5068 0002034  37.5168  84.3534 15.08811867  1301,6917.965999999999,95.439,541.238,538.424,0.0
52344.0,STARLINK-3851,PAYLOAD,2022-08-15 22:00:00,15.08836644,0.0001886999999999,53.215,283.0086,40.2221,93.2345,0.00036385,5.507e-05,0.0,0 STARLINK-3851,1 52344U 22045P   22227.91667824  .00005507  00000-0  36385-3 0  9994,2 52344  53.2150 283.0086 0001887  40.2221  93.2345 15.08836644  1303,6917.891,95.438,541.061,538.45,0.0
52344.0,STARLINK-3851,PAYLOAD,2022-08-16 06:00:02,15.08862986,0.0001932,53.2151,281.5121,42.3199,102.7887,-0.0013728,-0.00022084,0.0,0 STARLINK-3851,1 52344U 22045P   22228.25002315 -.00022084  00000-0 -13728-2 0  9996,2 52344  53.2151 281.5121 0001932  42.3199 102.7887 15.08862986 19309,6917.81,95.436,541.012,538.339,0.0
52344.0,STARLINK-3851,PAYLOAD,2022-08-16 14:00:01,15.08822387,0.0002077,53.2151,280.0171,36.0143,120.6504,0.0010584,0.00016589,0.0,0 STARLINK-3851,1 52344U 22045P   22228.58334491  .00016589  00000-0  10584-2 0  9993,2 52344  53.2151 280.0171 0002077  36.0143 120.6504 15.08822387  1305,6917.934,95.439,541.236,538.362,0.0
52344.0,STARLINK-3851,PAYLOAD,2022-08-16 22:00:00,15.0882225,0.0001884,53.2153,278.5189,38.2335,130.0198,0.00091896,0.0001436,0.0,0 STARLINK-3851,1 52344U 22045P   22228.91667824  .00014360  00000-0  91896-3 0  9990,2 52344  53.2153 278.5189 0001884  38.2335 130.0198 15.08822250  1303,6917.935,95.439,541.1030000000002,538.496,0.0
52344.0,STARLINK-3851,PAYLOAD,2022-08-17 14:00:01,15.088142199999998,0.0002118,53.2155,275.5276,35.8176,155.61,0.0031248,0.0004976,0.0,0 STARLINK-3851,1 52344U 22045P   22229.58334491  .00049760  00000-0  31248-2 0  9991,2 52344  53.2155 275.5276 0002118  35.8176 155.6100 15.08814220 19501,6917.959,95.439,541.289,538.359,0.0
52344.0,STARLINK-3851,PAYLOAD,2022-08-17 16:00:00,15.08840718,0.0002086999999999,53.2153,275.1531,35.9051,248.4121,0.00035824,5.418e-05,0.0,0 STARLINK-3851,1 52344U 22045P   22229.66667824  .00005418  00000-0  35824-3 0  9996,2 52344  53.2153 275.1531 0002087  35.9051 248.4121 15.08840718  1301,6917.878000000002,95.438,541.187,538.299,0.0
